[{"OBJECT_NAME":"STARLINK-4102","OBJECT_ID":"2022-083M","EPOCH":"2026-03-09T13:48:26.876448","MEAN_MOTION":15.08835002,"ECCENTRICITY":0.0001384,"INCLINATION":53.2176,"RA_OF_ASC_NODE":174.6333,"ARG_OF_PERICENTER":99.2353,"MEAN_ANOMALY":260.8796,"EPHEMERIS_TYPE":0,"CLASSIFICATION_TYPE":"U","NORAD_CAT_ID":53143,"ELEMENT_SET_NO":999,"REV_AT_EPOCH":20120,"BSTAR":-2.9837e-5,"MEAN_MOTION_DOT":-7.63e-6,"MEAN_MOTION_DDOT":0},{"OBJECT_NAME":"PEGASUS DEB","OBJECT_ID":"1994-029AFX","EPOCH":"2026-03-01T06:33:22.731264","MEAN_MOTION":14.85739755,"ECCENTRICITY":0.0106553,"INCLINATION":81.851,"RA_OF_ASC_NODE":257.2393,"ARG_OF_PERICENTER":271.4617,"MEAN_ANOMALY":87.4394,"EPHEMERIS_TYPE":0,"CLASSIFICATION_TYPE":"U","NORAD_CAT_ID":39924,"ELEMENT_SET_NO":999,"REV_AT_EPOCH":63095,"BSTAR":0.00041812,"MEAN_MOTION_DOT":4.045e-5,"MEAN_MOTION_DDOT":0}]
